satname,norad_id,inclination_deg,eccentricity,mean_motion_rev_per_day,perigee_km,apogee_km,l1,l2
STARLINK-1460,45676,53.1579,0.0001377,15.29364282,476.76745861400195,478.65555929336733,1 45676U 20035V   26072.25470437  .00003388  00000+0  12967-3 0  9996,2 45676  53.1579  48.3696 0001377  82.3501 277.7655 15.29364282319265
STARLINK-1392,45677,53.1575,0.0001668,15.29366897,476.5601397060982,478.8472481615945,1 45677U 20035W   26072.25122314  .00004566  00000+0  17043-3 0  9994,2 45677  53.1575  48.2402 0001668 103.9232 256.1954 15.29366897319302
STARLINK-1394,45679,53.0486,0.0003414,15.50581313,412.70851368899093,417.3468865462319,1 45679U 20035Y   26072.22732742  .00093804  00000+0  16006-2 0  9995,2 45679  53.0486  19.5846 0003414 137.1888 222.9386 15.50581313319704
STARLINK-1402,45685,53.0493,0.0001348,15.45491403,429.01683623362715,430.85229232735765,1 45685U 20035AE  26072.08284239  .00090500  00000+0  18448-2 0  9991,2 45685  53.0493   7.2292 0001348 196.7477 163.3485 15.45491403319877
STARLINK-1404,45686,53.1626,0.0001308,15.30215682,474.2718338677032,476.0646585201075,1 45686U 20035AF  26072.15754513  .00004882  00000+0  17676-3 0  9998,2 45686  53.1626  33.5905 0001308  72.9909 287.1235 15.30215682319506
STARLINK-1413,45689,53.1623,0.0001412,15.30209341,474.21948964485273,476.15486839300775,1 45689U 20035AJ  26072.29448337  .00002620  00000+0  10054-3 0  9991,2 45689  53.1623  32.8342 0001412  85.3382 274.7780 15.30209341319447
STARLINK-1417,45693,53.0511,0.0001906,15.12821913,526.2827448722137,528.9152114270846,1 45693U 20035AN  26072.29794806  .00035407  00000+0  19994-2 0  9991,2 45693  53.0511  37.9533 0001906 237.2993 122.7815 15.12821913319445
STARLINK-1420,45695,53.0538,0.0004263,15.54400945,401.00338750266474,406.7857476171657,1 45695U 20035AQ  26072.08651436  .00108168  00000+0  16047-2 0  9992,2 45695  53.0538   6.0199 0004263 122.3878 237.7545 15.54400945319885
STARLINK-1422,45696,53.1613,0.0001331,15.30203394,474.2927557542025,476.1171153774503,1 45696U 20035AR  26072.30186135  .00002405  00000+0  93302-4 0  9995,2 45696  53.1613  32.8024 0001331 100.6335 259.4816 15.30203394319521
STARLINK-1351,45697,53.0519,0.0004106,15.53201345,404.6000066247698,410.1722782293309,1 45697U 20035AS  26072.66667824  .00145262  00000+0  22379-2 0  9997,2 45697  53.0519   2.4610 0004106 144.1389 336.1033 15.53201345  5935
STARLINK-1398,45699,53.0328,0.000469,15.99056609,273.91369504116574,280.15624634967844,1 45699U 20035AU  26072.66667824  .00363543  66380-4  73560-3 0  9990,2 45699  53.0328 278.7140 0004690 233.9329 245.1705 15.99056609  6038
STARLINK-1400,45700,53.051,0.0007963,15.51317128,407.4717713690952,418.287144179747,1 45700U 20035AV  26072.61897975  .00118005  00000+0  19518-2 0  9995,2 45700  53.0510   4.0788 0007963 112.0440 248.1415 15.51317128319941
STARLINK-1403,45701,53.1431,0.0001584,15.26366869,485.59666471716355,487.77144002655405,1 45701U 20035AW  26072.66667824  .00994298  00000+0  34739-1 0  9996,2 45701  53.1431  18.0518 0001584  91.7169   2.9353 15.26366869  5694
STARLINK-1407,45703,53.0342,0.0010136,15.60891198,378.22632986241933,391.9367264627108,1 45703U 20035AY  26072.60575693  .00126346  00000+0  14631-2 0  9995,2 45703  53.0342 296.6705 0010136 121.7630 238.4371 15.60891198320904
STARLINK-1411,45706,53.0448,0.0005007,15.62618238,376.7135233819663,383.4812192814179,1 45706U 20035BB  26070.99632727  .00092501  00000+0  10094-2 0  9994,2 45706  53.0448 330.1593 0005007 141.7805 218.3564 15.62618238320286
STARLINK-1423,45710,53.0502,0.0007867,15.53698485,400.6015813667618,411.2756459372822,1 45710U 20035BF  26072.66667824  .00147977  00000+0  22364-2 0  9992,2 45710  53.0502   2.8345 0007867 126.9048 352.8712 15.53698485  5933
STARLINK-1433,45711,53.051,0.0007655,15.556294,395.13474651140587,405.5125697790254,1 45711U 20035BG  26072.40809280  .00107281  00000+0  15205-2 0  9999,2 45711  53.0510   3.0728 0007655 117.8796 242.2990 15.55629400319947
STARLINK-1434,45712,53.0531,0.0005549,15.27183308,480.42926027198246,488.0451231499437,1 45712U 20035BH  26072.23399465  .00049079  00000+0  18177-2 0  9991,2 45712  53.0531   3.6151 0005549 108.7678 251.3922 15.27183308319931
STARLINK-1465,45731,53.05,0.00029,15.50658915,412.8311056907687,416.77100976425027,1 45731U 20038B   26072.38398278  .00064382  00000+0  11022-2 0  9998,2 45731  53.0500 205.4267 0002900 289.0892  70.9802 15.50658915316955
STARLINK-1471,45735,53.0465,7.96e-05,15.49116524,418.7681973471781,419.8503507940104,1 45735U 20038F   26072.51753299  .00028169  00000+0  51612-3 0  9998,2 45735  53.0465 123.6823 0000796 306.6314  53.4620 15.49116524318122
STARLINK-1480,45741,53.051,0.0006473,15.47852183,418.6079857160612,427.41275109920116,1 45741U 20038M   26072.34664438  .00027536  00000+0  52713-3 0  9992,2 45741  53.0510 199.7632 0006473 191.8091 168.2765 15.47852183317047
STARLINK-1500,45744,53.0361,0.0001844,15.34999489,459.66089000505326,462.1831349688573,1 45744U 20038Q   26071.67290588  .00029567  00000+0  86607-3 0  9996,2 45744  53.0361 178.7557 0001844 278.9345  81.1447 15.34999489317275
STARLINK-1504,45746,53.0226,9e-06,15.5344383,406.6189360059707,406.7410627119589,1 45746U 20038S   26072.54715578  .00034495  00000+0  53990-3 0  9991,2 45746  53.0226 123.5705 0000090 178.4748 181.6261 15.53443830318112
STARLINK-1506,45747,53.0739,0.0002378,15.26332917,485.1533748109332,488.41833212004167,1 45747U 20038T   26072.32727443  .00010350  00000+0  40585-3 0  9992,2 45747  53.0739 185.5389 0002378 253.0532 107.0206 15.26332917317247
STARLINK-1464,45751,53.0514,0.0002519,15.44549968,430.9850731420138,434.41637318694393,1 45751U 20038X   26072.32074486  .00042800  00000+0  91113-3 0  9997,2 45751  53.0514 187.3509 0002519 288.6817  71.3915 15.44549968317217
STARLINK-1477,45754,53.0484,0.0001157,15.14656923,521.2219608457899,522.8186572471031,1 45754U 20038AA  26072.32879069  .00034192  00000+0  18349-2 0  9994,2 45754  53.0484 196.4214 0001157  24.5220 335.5828 15.14656923317082
STARLINK-1478,45755,53.0501,0.0003224,15.55886378,397.39212614033295,401.7623962959651,1 45755U 20038AB  26072.29569549  .00118123  00000+0  16569-2 0  9999,2 45755  53.0501 180.4424 0003224 270.1094  89.9547 15.55886378317299
STARLINK-1484,45756,52.9963,0.0004385,16.0891627,246.9115583366838,252.72427479851285,1 45756U 20038AC  26072.62737144  .00787994  34521-3  87753-3 0  9996,2 45756  52.9963  36.0028 0004385 106.4116 253.7399 16.08916270319338
STARLINK-1493,45759,53.0522,0.0002689,15.51020583,411.91869176267846,415.57136591778817,1 45759U 20038AF  26072.57489649  .00105314  00000+0  17658-2 0  9994,2 45759  53.0522 185.8423 0002689  25.7447 334.3695 15.51020583317244
STARLINK-1494,45760,53.0476,0.0006118,15.74558936,341.7728156057656,350.0003308499672,1 45760U 20038AG  26072.56047809  .00108812  00000+0  72526-3 0  9995,2 45760  53.0476 132.3640 0006118  17.0866 343.0358 15.74558936318003
STARLINK-1502,45764,53.0506,0.0003645,15.477585,420.8056880905815,425.7639245874034,1 45764U 20038AL  26072.00002315  .00039490  00000+0  75399-3 0  9997,2 45764  53.0506 190.2205 0003645   9.9311  99.6867 15.47758500  5896
STARLINK-1470,45772,53.0463,0.0002207,15.28407536,479.05855652173796,482.0859907951308,1 45772U 20038AU  26072.20578047  .00045564  00000+0  16280-2 0  9990,2 45772  53.0463 157.9899 0002207  25.7261 334.3847 15.28407536317611
STARLINK-1482,45773,53.1612,0.0001335,15.30195165,474.31458146728437,476.14443032435884,1 45773U 20038AV  26071.55485156 -.00000302  00000+0  19335-5 0  9995,2 45773  53.1612 177.7098 0001335  96.3280 263.7873 15.30195165317288
STARLINK-1496,45780,53.0502,0.000279,15.4892315,417.9783645675989,421.7716552691327,1 45780U 20038BC  26072.25602606  .00097770  00000+0  17675-2 0  9998,2 45780  53.0502 160.7439 0002790 232.4421 127.6333 15.48923150317562
STARLINK-1513,45786,53.1605,0.000103,15.30195634,474.52220893347203,475.9340021452126,1 45786U 20038BJ  26072.28281558  .00005424  00000+0  19514-3 0  9996,2 45786  53.1605 174.4578 0001030  81.5672 278.5445 15.30195634317396
STARLINK-1522,46027,53.0646,0.0001907,15.09224921,537.2480740556884,539.8861049954339,1 46027U 20055A   26072.52273123  .00018598  00000+0  11711-2 0  9996,2 46027  53.0646 109.2027 0001907  68.5391 291.5802 15.09224921309469
STARLINK-1523,46028,53.1246,6.91e-05,15.22749501,497.07646077638947,498.02668093688226,1 46028U 20055B   26072.66667824  .00924744  00000+0  36187-1 0  9999,2 46028  53.1246 108.0270 0000691  95.1281 180.7506 15.22749501  5810
STARLINK-1526,46029,53.1251,9.21e-05,15.22851346,496.6117906488098,497.8782360156665,1 46029U 20055C   26072.66667824  .00885762  00000+0  34675-1 0  9996,2 46029  53.1251 107.9905 0000921  71.0103 264.7912 15.22851346  5749
STARLINK-1555,46032,53.1247,0.0001137,15.2285799,496.4432871525096,498.00674447490564,1 46032U 20055F   26072.66667824  .01013711  00000+0  39242-1 0  9993,2 46032  53.1247 108.0780 0001137  70.6674 296.4528 15.22857990  5802
STARLINK-1556,46033,53.1295,0.0002196,15.23756947,493.01138446000823,496.0298556867456,1 46033U 20055G   26072.66667824  .01005810  00000+0  37948-1 0  9996,2 46033  53.1295 107.9880 0002196  80.5612  76.2634 15.23756947  5840
STARLINK-1557,46034,53.1327,0.0002096,15.24412615,491.10970829112193,493.9899001994618,1 46034U 20055H   26072.66667824  .00972213  00000+0  36078-1 0  9999,2 46034  53.1327 107.9052 0002096  80.3143 102.0439 15.24412615  5498
STARLINK-1558,46035,53.1287,0.0001459,15.2371458,493.6452766617076,495.650755329375,1 46035U 20055J   26072.66667824  .01073265  00000+0  40868-1 0  9992,2 46035  53.1287 108.0812 0001459  55.1214 350.9316 15.23714580  5696
STARLINK-1560,46036,53.1441,0.0001499,15.26871513,484.1425713472154,486.2001911999223,1 46036U 20055K   26072.66667824  .01723039  00000+0  58972-1 0  9999,2 46036  53.1441 108.0017 0001499  95.4673  74.3077 15.26871513  5746
